MAYA-1                  
1 43590U 98067PE  19198.26389802  .00008492  00000-0  99951-4 0  9997
2 43590  51.6343 198.6012 0004659 267.2295  92.8166 15.62331611 53143
BHUTAN-1                
1 43591U 98067PF  19197.42201587  .00009806  00000-0  11429-3 0  9991
2 43591  51.6353 202.7519 0004779 265.0994  94.9454 15.62375757 53017
SIRIUSSAT-1             
1 43595U 98067PG  19198.51060408  .00007639  00000-0  93235-4 0  9999
2 43595  51.6344 198.7485 0002519 216.9297 143.1524 15.61555547 52344
SIRIUSSAT-2             
1 43596U 98067PH  19198.47989951  .00008543  00000-0  10415-3 0  9991
2 43596  51.6354 199.3305 0003056 217.3549 142.7232 15.61399001 52337
TANUSHA-3               
1 43597U 98067PJ  19198.83203778  .00010959  00000-0  12371-3 0  9995
2 43597  51.6337 195.6177 0002445 241.6825 118.3923 15.63065299 52419
SURFSAT                 
1 43614U 18070B   19198.49453295  .00001630  00000-0  44235-4 0  9995
2 43614  93.0227  15.5474 0015396 185.2811 174.8283 15.37613871 46835
CP7 (DAVE)              
1 43615U 18070C   19198.04617680  .00001598  00000-0  43509-4 0  9993
2 43615  93.0226  15.3630 0015462 186.3243 173.7818 15.37527508 46767
ELFIN-B                 
1 43616U 18070D   19198.49782659  .00002392  00000-0  63618-4 0  9998
2 43616  93.0191  15.4607 0016256 188.5458 171.5521 15.38179975 46846
ELFIN-A                 
1 43617U 18070E   19198.49086132  .00002301  00000-0  61149-4 0  9999
2 43617  93.0246  15.6954 0015558 184.9549 175.1554 15.38228240 46846
CUBEBEL-1 (BSUSAT-1)    
1 43666U 18083E   19198.83533742  .00000593  00000-0  32812-4 0  9995
2 43666  97.5184 223.1127 0016741  87.5203  32.3520 15.17619592 39703
DEBRISSAT-2             
1 43680U 98067PR  19198.24142190  .00012879  00000-0  13939-3 0  9997
2 43680  51.6372 198.2625 0002112 257.1515 197.9296 15.63963634 61053
CICERO 10               
1 43690U 18088A   19198.07323853  .00000726  00000-0  32009-4 0  9999
2 43690  85.0392 299.8222 0017448 102.3137 258.0058 15.19694653 37643
IRVINE01                
1 43693U 18088D   19198.81803207  .00001516  00000-0  65308-4 0  9996
2 43693  85.0367 298.8803 0020808  87.1987 273.1636 15.21466599 37794
PROXIMA I               
1 43694U 18088E   19198.05306491  .00000671  00000-0  27868-4 0  9996
2 43694  85.0337 299.2087 0021818  81.5519 278.8194 15.21417700 37681
PROXIMA II              
1 43696U 18088G   19198.05211166  .00000652  00000-0  27033-4 0  9995
2 43696  85.0337 299.2104 0021853  81.5207 278.8510 15.21422665 37684
FACSAT-1                
1 43721U 18096C   19198.84375039  .00000871  00000-0  36306-4 0  9996
2 43721  97.4585 268.6612 0016807 223.0395 136.9530 15.26343259 35188
CENTAURI-2              
1 43722U 18096D   19198.62342070  .00001086  00000-0  44224-4 0  9999
2 43722  97.4587 268.4964 0016940 224.6994 135.2880 15.26569230 35144
INNOSAT-2               
1 43738U 18096V   19198.84090145  .00001426  00000-0  53448-4 0  9999
2 43738  97.4590 269.4319 0023052 236.6094 123.2940 15.28736257 35237
SIRION PATHFINDER-2     
1 43759U 18099B   19198.83130888  .00000110  00000-0  15313-4 0  9991
2 43759  97.7441 270.4583 0013273 218.5883 141.4390 14.95139922 33779
CORVUS-BC 4             
1 43767U 18099K   19198.51348132 -.00000309  00000-0 -23223-4 0  9999
2 43767  97.7426 269.9100 0010777 222.4448 137.5940 14.94580984 33725
SHIELDS 1               
1 43850U 18104B   19197.54010672  .00000041  00000-0  00000+0 0  9990
2 43850  85.0258  38.0470 0013373 221.7045 138.3456 15.21097435 32259
STF-1                   
1 43852U 18104D   19198.27795219  .00000041  00000-0  00000+0 0  9990
2 43852  85.0293  37.8094 0012449 234.2566 125.7602 15.20634020 32359
ZACUBE-2                
1 43907U 18111AH  19199.04563213  .00000341  00000-0  16814-4 0  9990
2 43907  97.2886 103.4743 0020139 246.9368 244.0356 15.24208536 30913
LUME 1                  
1 43908U 18111AJ  19198.15840386  .00000544  00000-0  24998-4 0  9998
2 43908  97.2881 102.6336 0019967 249.7960 110.1131 15.24368690 30781
AOBA VELOX-IV           
1 43940U 19003J   19198.83781929  .00001135  00000-0  49616-4 0  9998
2 43940  97.2756 255.8850 0023592 332.7416 117.1624 15.23869277 27526
CATSAT-2                
1 44029U 98067PV  19198.43675114  .00004019  00000-0  61788-4 0  9996
2 44029  51.6379 207.3002 0004367 258.3563 101.6939 15.56798496 26050
DELPHINI                
1 44030U 98067PW  19198.10789265  .00006738  00000-0  98404-4 0  9990
2 44030  51.6365 208.8414 0003892 257.1723 102.8834 15.56948458 25979
UNITE                   
1 44031U 98067PX  19198.41821447  .00003717  00000-0  59447-4 0  9992
2 44031  51.6373 207.9169 0002671 252.4966 107.5734 15.55932236 26010
TECHEDSAT 8             
1 44032U 98067PY  19198.49174147  .00015664  00000-0  19160-3 0  9990
2 44032  51.6359 204.6569 0002589 271.9787  88.0910 15.60587715 26044
CATSAT-1                
1 44033U 98067PZ  19198.82180590  .00003953  00000-0  60880-4 0  9991
2 44033  51.6381 205.3722 0004187 259.9366 100.1153 15.56799714 26026
NEPALISAT-1             
1 44329U 98067QE  19198.43063138  .00003722  00000-0  67721-4 0  9999
2 44329  51.6393 211.0029 0006945 186.7609 173.3288 15.52253789  4729
RAAVANA-1               
1 44330U 98067QF  19198.10943599  .00004041  00000-0  72966-4 0  9995
2 44330  51.6393 212.6076 0006949 184.2201 175.8731 15.52214302  4655
UGUISU                  
1 44331U 98067QG  19198.49432391  .00004032  00000-0  72643-4 0  9993
2 44331  51.6393 210.6785 0006954 188.3577 171.7298 15.52289915  4721
SPOOQY-1                
1 44332U 98067QH  19198.10734451  .00004086  00000-0  73428-4 0  9995
2 44332  51.6392 212.5932 0005714 188.4974 171.5920 15.52323553  4627
KRAKSAT                 
1 44426U 98067QL  19198.57314923  .00006227  00000-0  11029-3 0  9995
2 44426  51.6400 210.4555 0004382 141.2701 218.8603 15.51696931  2223
SWIATOWID               
1 44427U 98067QM  19198.44438268  .00002524  00000-0  49388-4 0  9997
2 44427  51.6407 211.0955 0004277 140.2696 219.8607 15.51640586  2249
VCC A                   
1 44428U 98067QN  19198.12086204  .00003936  00000-0  72211-4 0  9991
2 44428  51.6404 212.6848 0003291 155.3639 204.7508 15.51833334  2196
VCC B                   
1 44429U 98067QP  19198.50708156  .00004813  00000-0  86494-4 0  9994
2 44429  51.6404 210.7643 0003185 147.3681 212.7506 15.51868833  2255
VCC C                   
1 44430U 98067QQ  19198.12083837  .00003760  00000-0  69330-4 0  9996
2 44430  51.6404 212.6848 0003275 155.4975 204.6171 15.51832306  1018
ENTRYSAT                
1 44431U 98067QR  19198.12114369  .00004123  00000-0  75365-4 0  9991
2 44431  51.6404 212.6866 0003471 154.8927 205.2232 15.51802849  2135
